{"type": "FeatureCollection", "features": [ {"type": "Feature", "properties": {"norad_id": 37284, "name": "COSMOS 2251 DEB", "group": "cosmos-2251-debris", "lat": 27.513959967379503, "lon": -38.29545692514026, "alt_km": 948.6021896178418, "timestamp": "2025-12-16T08:59:43.559167+00:00", "meta": {"OBJECT_NAME": "COSMOS 2251 DEB", "OBJECT_ID": "1993-036BHY", "EPOCH": "2025-12-10T18:04:20.469216", "MEAN_MOTION": 14.12686618, "ECCENTRICITY": 0.01605026, "INCLINATION": 74.0123, "RA_OF_ASC_NODE": 160.2425, "ARG_OF_PERICENTER": 312.4867, "MEAN_ANOMALY": 59.8736, "EPHEMERIS_TYPE": 0, "CLASSIFICATION_TYPE": "U", "NORAD_CAT_ID": 37284, "ELEMENT_SET_NO": 999, "REV_AT_EPOCH": 59147, "BSTAR": 0.001592138, "MEAN_MOTION_DOT": 3.31e-05, "MEAN_MOTION_DDOT": 0}, "tle": {"line1": "1 37284U 93036BHY 25344.75301469  .00003310  00000+0  15921-2 0  9994", "line2": "2 37284  74.0123 160.2425 0160502 312.4867  59.8736 14.12686618591475"}}, "geometry": {"type": "Point", "coordinates": [-38.29545692514026, 27.513959967379503]}}, {"type": "Feature", "properties": {"norad_id": 37292, "name": "COSMOS 2251 DEB", "group": "cosmos-2251-debris", "lat": 25.152566311008584, "lon": -144.1947156866772, "alt_km": 925.1165425879226, "timestamp": "2025-12-16T08:59:43.559177+00:00", "meta": {"OBJECT_NAME": "COSMOS 2251 DEB", "OBJECT_ID": "1993-036BJG", "EPOCH": "2025-12-02T14:04:30.366912", "MEAN_MOTION": 14.03226454, "ECCENTRICITY": 0.02102512, "INCLINATION": 74.129, "RA_OF_ASC_NODE": 67.3453, "ARG_OF_PERICENTER": 73.1105, "MEAN_ANOMALY": 289.2966, "EPHEMERIS_TYPE": 0, "CLASSIFICATION_TYPE": "U", "NORAD_CAT_ID": 37292, "ELEMENT_SET_NO": 999, "REV_AT_EPOCH": 59706, "BSTAR": 0.0022453288, "MEAN_MOTION_DOT": 4.236e-05, "MEAN_MOTION_DDOT": 0}, "tle": {"line1": "1 37292U 93036BJG 25336.58646258  .00004236  00000+0  22453-2 0  9999", "line2": "2 37292  74.1290  67.3453 0210251  73.1105 289.2966 14.03226454597064"}}, "geometry": {"type": "Point", "coordinates": [-144.1947156866772, 25.152566311008584]}}, {"type": "Feature", "properties": {"norad_id": 37295, "name": "COSMOS 2251 DEB", "group": "cosmos-2251-debris", "lat": 22.807585565944827, "lon": 87.68924420670645, "alt_km": 661.531528120513, "timestamp": "2025-12-16T08:59:43.559188+00:00", "meta": {"OBJECT_NAME": "COSMOS 2251 DEB", "OBJECT_ID": "1993-036BJK", "EPOCH": "2025-12-15T12:37:34.902624", "MEAN_MOTION": 14.65257208, "ECCENTRICITY": 0.00438072, "INCLINATION": 74.0066, "RA_OF_ASC_NODE": 276.2519, "ARG_OF_PERICENTER": 94.6332, "MEAN_ANOMALY": 265.9841, "EPHEMERIS_TYPE": 0, "CLASSIFICATION_TYPE": "U", "NORAD_CAT_ID": 37295, "ELEMENT_SET_NO": 999, "REV_AT_EPOCH": 82345, "BSTAR": 0.00041801596, "MEAN_MOTION_DOT": 2.254e-05, "MEAN_MOTION_DDOT": 0}, "tle": {"line1": "1 37295U 93036BJK 25349.52609841  .00002254  00000+0  41802-3 0  9995", "line2": "2 37295  74.0066 276.2519 0043807  94.6332 265.9841 14.65257208823459"}}, "geometry": {"type": "Point", "coordinates": [87.68924420670645, 22.807585565944827]}}, {"type": "Feature", "properties": {"norad_id": 37305, "name": "COSMOS 2251 DEB", "group": "cosmos-2251-debris", "lat": -72.28721210316955, "lon": -141.19649578360105, "alt_km": 748.4300379826655, "timestamp": "2025-12-16T08:59:43.559198+00:00", "meta": {"OBJECT_NAME": "COSMOS 2251 DEB", "OBJECT_ID": "1993-036BJV", "EPOCH": "2025-12-13T12:50:04.816608", "MEAN_MOTION": 14.36140847, "ECCENTRICITY": 0.00500253, "INCLINATION": 73.8697, "RA_OF_ASC_NODE": 289.0409, "ARG_OF_PERICENTER": 249.3262, "MEAN_ANOMALY": 110.2523, "EPHEMERIS_TYPE": 0, "CLASSIFICATION_TYPE": "U", "NORAD_CAT_ID": 37305, "ELEMENT_SET_NO": 999, "REV_AT_EPOCH": 66878, "BSTAR": 0.00092453159, "MEAN_MOTION_DOT": 2.706e-05, "MEAN_MOTION_DDOT": 0}, "tle": {"line1": "1 37305U 93036BJV 25347.53477797  .00002706  00000+0  92453-3 0  9999", "line2": "2 37305  73.8697 289.0409 0050025 249.3262 110.2523 14.36140847668789"}}, "geometry": {"type": "Point", "coordinates": [-141.19649578360105, -72.28721210316955]}}, {"type": "Feature", "properties": {"norad_id": 37312, "name": "COSMOS 2251 DEB", "group": "cosmos-2251-debris", "lat": 74.01974542611464, "lon": -71.89485968790778, "alt_km": 742.195469108241, "timestamp": "2025-12-16T08:59:43.559209+00:00", "meta": {"OBJECT_NAME": "COSMOS 2251 DEB", "OBJECT_ID": "1993-036BKC", "EPOCH": "2025-12-15T07:40:32.314080", "MEAN_MOTION": 14.46134941, "ECCENTRICITY": 0.00183905, "INCLINATION": 74.0308, "RA_OF_ASC_NODE": 199.364, "ARG_OF_PERICENTER": 302.4306, "MEAN_ANOMALY": 57.5073, "EPHEMERIS_TYPE": 0, "CLASSIFICATION_TYPE": "U", "NORAD_CAT_ID": 37312, "ELEMENT_SET_NO": 999, "REV_AT_EPOCH": 86201, "BSTAR": 0.00037323494, "MEAN_MOTION_DOT": 1.309e-05, "MEAN_MOTION_DDOT": 0}, "tle": {"line1": "1 37312U 93036BKC 25349.31981845  .00001309  00000+0  37323-3 0  9992", "line2": "2 37312  74.0308 199.3640 0018390 302.4306  57.5073 14.46134941862012"}}, "geometry": {"type": "Point", "coordinates": [-71.89485968790778, 74.01974542611464]}}, {"type": "Feature", "properties": {"norad_id": 37316, "name": "COSMOS 2251 DEB", "group": "cosmos-2251-debris", "lat": -21.53713875691524, "lon": -159.76870272318047, "alt_km": 599.2354141642791, "timestamp": "2025-12-16T08:59:43.559219+00:00", "meta": {"OBJECT_NAME": "COSMOS 2251 DEB", "OBJECT_ID": "1993-036BKG", "EPOCH": "2025-12-15T19:14:39.998976", "MEAN_MOTION": 14.9462647, "ECCENTRICITY": 0.00294142, "INCLINATION": 74.0202, "RA_OF_ASC_NODE": 14.893, "ARG_OF_PERICENTER": 81.8422, "MEAN_ANOMALY": 278.6097, "EPHEMERIS_TYPE": 0, "CLASSIFICATION_TYPE": "U", "NORAD_CAT_ID": 37316, "ELEMENT_SET_NO": 999, "REV_AT_EPOCH": 86189, "BSTAR": 0.0011902248, "MEAN_MOTION_DOT": 0.0001299, "MEAN_MOTION_DDOT": 0}, "tle": {"line1": "1 37316U 93036BKG 25349.80185184  .00012990  00000+0  11902-2 0  9994", "line2": "2 37316  74.0202  14.8930 0029414  81.8422 278.6097 14.94626470861891"}}, "geometry": {"type": "Point", "coordinates": [-159.76870272318047, -21.53713875691524]}}, {"type": "Feature", "properties": {"norad_id": 37320, "name": "COSMOS 2251 DEB", "group": "cosmos-2251-debris", "lat": 47.051453262920695, "lon": 13.123193311757657, "alt_km": 660.5313701158448, "timestamp": "2025-12-16T08:59:43.559229+00:00", "meta": {"OBJECT_NAME": "COSMOS 2251 DEB", "OBJECT_ID": "1993-036BKL", "EPOCH": "2025-12-14T07:41:51.703584", "MEAN_MOTION": 14.78808328, "ECCENTRICITY": 0.00469324, "INCLINATION": 74.0457, "RA_OF_ASC_NODE": 215.056, "ARG_OF_PERICENTER": 301.712, "MEAN_ANOMALY": 57.9484, "EPHEMERIS_TYPE": 0, "CLASSIFICATION_TYPE": "U", "NORAD_CAT_ID": 37320, "ELEMENT_SET_NO": 999, "REV_AT_EPOCH": 66170, "BSTAR": 0.00089962437, "MEAN_MOTION_DOT": 6.711e-05, "MEAN_MOTION_DDOT": 0}, "tle": {"line1": "1 37320U 93036BKL 25348.32073731  .00006711  00000+0  89962-3 0  9995", "line2": "2 37320  74.0457 215.0560 0046932 301.7120  57.9484 14.78808328661707"}}, "geometry": {"type": "Point", "coordinates": [13.123193311757657, 47.051453262920695]}}, {"type": "Feature", "properties": {"norad_id": 37326, "name": "COSMOS 2251 DEB", "group": "cosmos-2251-debris", "lat": 63.29726684088324, "lon": 113.02517423464005, "alt_km": 644.2042457996358, "timestamp": "2025-12-16T08:59:43.559240+00:00", "meta": {"OBJECT_NAME": "COSMOS 2251 DEB", "OBJECT_ID": "1993-036BKS", "EPOCH": "2025-12-12T07:34:09.729696", "MEAN_MOTION": 14.61572404, "ECCENTRICITY": 0.00547779, "INCLINATION": 74.0262, "RA_OF_ASC_NODE": 335.5049, "ARG_OF_PERICENTER": 104.6745, "MEAN_ANOMALY": 256.0503, "EPHEMERIS_TYPE": 0, "CLASSIFICATION_TYPE": "U", "NORAD_CAT_ID": 37326, "ELEMENT_SET_NO": 999, "REV_AT_EPOCH": 85477, "BSTAR": 0.00081564532, "MEAN_MOTION_DOT": 4.11e-05, "MEAN_MOTION_DDOT": 0}, "tle": {"line1": "1 37326U 93036BKS 25346.31539039  .00004110  00000+0  81565-3 0  9998", "line2": "2 37326  74.0262 335.5049 0054777 104.6745 256.0503 14.61572404854776"}}, "geometry": {"type": "Point", "coordinates": [113.02517423464005, 63.29726684088324]}}, {"type": "Feature", "properties": {"norad_id": 37330, "name": "COSMOS 2251 DEB", "group": "cosmos-2251-debris", "lat": 71.63150275263912, "lon": -12.183688483607575, "alt_km": 663.9999499025289, "timestamp": "2025-12-16T08:59:43.559250+00:00", "meta": {"OBJECT_NAME": "COSMOS 2251 DEB", "OBJECT_ID": "1993-036BKW", "EPOCH": "2025-12-15T04:39:38.606112", "MEAN_MOTION": 14.59547518, "ECCENTRICITY": 0.00569299, "INCLINATION": 74.0181, "RA_OF_ASC_NODE": 290.4011, "ARG_OF_PERICENTER": 138.2054, "MEAN_ANOMALY": 222.3481, "EPHEMERIS_TYPE": 0, "CLASSIFICATION_TYPE": "U", "NORAD_CAT_ID": 37330, "ELEMENT_SET_NO": 999, "REV_AT_EPOCH": 86404, "BSTAR": 0.00024598877, "MEAN_MOTION_DOT": 1.165e-05, "MEAN_MOTION_DDOT": 0}, "tle": {"line1": "1 37330U 93036BKW 25349.19419683  .00001165  00000+0  24599-3 0  9995", "line2": "2 37330  74.0181 290.4011 0056929 138.2054 222.3481 14.59547518864043"}}, "geometry": {"type": "Point", "coordinates": [-12.183688483607575, 71.63150275263912]}}, {"type": "Feature", "properties": {"norad_id": 37331, "name": "COSMOS 2251 DEB", "group": "cosmos-2251-debris", "lat": -59.40791296988437, "lon": -89.9009378588466, "alt_km": 820.476956937393, "timestamp": "2025-12-16T08:59:43.559271+00:00", "meta": {"OBJECT_NAME": "COSMOS 2251 DEB", "OBJECT_ID": "1993-036BKX", "EPOCH": "2025-12-15T21:49:44.847840", "MEAN_MOTION": 14.35031583, "ECCENTRICITY": 0.00551695, "INCLINATION": 74.0745, "RA_OF_ASC_NODE": 62.0716, "ARG_OF_PERICENTER": 75.4056, "MEAN_ANOMALY": 285.3206, "EPHEMERIS_TYPE": 0, "CLASSIFICATION_TYPE": "U", "NORAD_CAT_ID": 37331, "ELEMENT_SET_NO": 999, "REV_AT_EPOCH": 84805, "BSTAR": 0.0003651681, "MEAN_MOTION_DOT": 1.033e-05, "MEAN_MOTION_DDOT": 0}, "tle": {"line1": "1 37331U 93036BKX 25349.90954685  .00001033  00000+0  36517-3 0  9998", "line2": "2 37331  74.0745  62.0716 0055169  75.4056 285.3206 14.35031583848055"}}, "geometry": {"type": "Point", "coordinates": [-89.9009378588466, -59.40791296988437]}}]}